[{"OBJECT_NAME":"UNKNOWN","OBJECT_ID":"","EPOCH":"2026-03-04T23:32:51.423072","MEAN_MOTION":15.05159698,"ECCENTRICITY":0.0007522,"INCLINATION":85.8746,"RA_OF_ASC_NODE":155.3788,"ARG_OF_PERICENTER":339.4503,"MEAN_ANOMALY":20.6427,"EPHEMERIS_TYPE":0,"CLASSIFICATION_TYPE":"U","NORAD_CAT_ID":81343,"ELEMENT_SET_NO":999,"REV_AT_EPOCH":46668,"BSTAR":0.00061837,"MEAN_MOTION_DOT":8.846e-5,"MEAN_MOTION_DDOT":0},{"OBJECT_NAME":"UNKNOWN","OBJECT_ID":"","EPOCH":"2026-03-04T20:34:40.267200","MEAN_MOTION":13.78978134,"ECCENTRICITY":0.0119863,"INCLINATION":66.797,"RA_OF_ASC_NODE":215.4223,"ARG_OF_PERICENTER":270.5374,"MEAN_ANOMALY":88.1966,"EPHEMERIS_TYPE":0,"CLASSIFICATION_TYPE":"U","NORAD_CAT_ID":81359,"ELEMENT_SET_NO":999,"REV_AT_EPOCH":61680,"BSTAR":0.0010247,"MEAN_MOTION_DOT":1.03e-5,"MEAN_MOTION_DDOT":0},{"OBJECT_NAME":"UNKNOWN","OBJECT_ID":"","EPOCH":"2026-03-02T22:18:46.060128","MEAN_MOTION":13.45377095,"ECCENTRICITY":0.0712435,"INCLINATION":65.8803,"RA_OF_ASC_NODE":242.2206,"ARG_OF_PERICENTER":42.5375,"MEAN_ANOMALY":322.866,"EPHEMERIS_TYPE":0,"CLASSIFICATION_TYPE":"U","NORAD_CAT_ID":81366,"ELEMENT_SET_NO":999,"REV_AT_EPOCH":7674,"BSTAR":0.00032297,"MEAN_MOTION_DOT":8.39e-6,"MEAN_MOTION_DDOT":0},{"OBJECT_NAME":"UNKNOWN","OBJECT_ID":"","EPOCH":"2026-03-05T12:09:01.457568","MEAN_MOTION":14.71130762,"ECCENTRICITY":0.0070133,"INCLINATION":98.8101,"RA_OF_ASC_NODE":172.6109,"ARG_OF_PERICENTER":106.8339,"MEAN_ANOMALY":254.0573,"EPHEMERIS_TYPE":0,"CLASSIFICATION_TYPE":"U","NORAD_CAT_ID":81371,"ELEMENT_SET_NO":999,"REV_AT_EPOCH":65400,"BSTAR":0.00089225,"MEAN_MOTION_DOT":5.647e-5,"MEAN_MOTION_DDOT":0},{"OBJECT_NAME":"UNKNOWN","OBJECT_ID":"","EPOCH":"2026-03-04T17:54:07.486272","MEAN_MOTION":13.82274067,"ECCENTRICITY":0.0039118,"INCLINATION":100.4046,"RA_OF_ASC_NODE":65.3082,"ARG_OF_PERICENTER":183.0651,"MEAN_ANOMALY":355.2593,"EPHEMERIS_TYPE":0,"CLASSIFICATION_TYPE":"U","NORAD_CAT_ID":81392,"ELEMENT_SET_NO":999,"REV_AT_EPOCH":61350,"BSTAR":0.0034598,"MEAN_MOTION_DOT":3.705e-5,"MEAN_MOTION_DDOT":0},{"OBJECT_NAME":"UNKNOWN","OBJECT_ID":"","EPOCH":"2026-03-03T22:47:31.364448","MEAN_MOTION":13.89145588,"ECCENTRICITY":0.0157918,"INCLINATION":99.4597,"RA_OF_ASC_NODE":117.4079,"ARG_OF_PERICENTER":7.0973,"MEAN_ANOMALY":353.2369,"EPHEMERIS_TYPE":0,"CLASSIFICATION_TYPE":"U","NORAD_CAT_ID":81405,"ELEMENT_SET_NO":999,"REV_AT_EPOCH":57307,"BSTAR":0.0012527,"MEAN_MOTION_DOT":1.635e-5,"MEAN_MOTION_DDOT":0},{"OBJECT_NAME":"UNKNOWN","OBJECT_ID":"","EPOCH":"2026-03-05T03:13:02.028000","MEAN_MOTION":14.07092373,"ECCENTRICITY":0.0083884,"INCLINATION":98.7437,"RA_OF_ASC_NODE":308.6068,"ARG_OF_PERICENTER":165.5622,"MEAN_ANOMALY":194.7972,"EPHEMERIS_TYPE":0,"CLASSIFICATION_TYPE":"U","NORAD_CAT_ID":81427,"ELEMENT_SET_NO":999,"REV_AT_EPOCH":56335,"BSTAR":0.00028226,"MEAN_MOTION_DOT":4.45e-6,"MEAN_MOTION_DDOT":0},{"OBJECT_NAME":"UNKNOWN","OBJECT_ID":"","EPOCH":"2026-03-05T09:02:18.324672","MEAN_MOTION":13.55193005,"ECCENTRICITY":0.0048927,"INCLINATION":100.3256,"RA_OF_ASC_NODE":304.7008,"ARG_OF_PERICENTER":239.6708,"MEAN_ANOMALY":119.9582,"EPHEMERIS_TYPE":0,"CLASSIFICATION_TYPE":"U","NORAD_CAT_ID":81438,"ELEMENT_SET_NO":999,"REV_AT_EPOCH":60313,"BSTAR":0.0043174,"MEAN_MOTION_DOT":2.957e-5,"MEAN_MOTION_DDOT":0},{"OBJECT_NAME":"UNKNOWN","OBJECT_ID":"","EPOCH":"2026-03-05T04:27:28.731744","MEAN_MOTION":12.62651463,"ECCENTRICITY":0.059605,"INCLINATION":67.1625,"RA_OF_ASC_NODE":342.3805,"ARG_OF_PERICENTER":152.4216,"MEAN_ANOMALY":210.9808,"EPHEMERIS_TYPE":0,"CLASSIFICATION_TYPE":"U","NORAD_CAT_ID":81439,"ELEMENT_SET_NO":999,"REV_AT_EPOCH":27230,"BSTAR":0.00145,"MEAN_MOTION_DOT":4.67e-6,"MEAN_MOTION_DDOT":0},{"OBJECT_NAME":"UNKNOWN","OBJECT_ID":"","EPOCH":"2026-03-05T11:05:33.983232","MEAN_MOTION":15.16828588,"ECCENTRICITY":0.002334,"INCLINATION":66.7883,"RA_OF_ASC_NODE":107.973,"ARG_OF_PERICENTER":19.1658,"MEAN_ANOMALY":341.0358,"EPHEMERIS_TYPE":0,"CLASSIFICATION_TYPE":"U","NORAD_CAT_ID":81449,"ELEMENT_SET_NO":999,"REV_AT_EPOCH":64602,"BSTAR":0.0070943,"MEAN_MOTION_DOT":0.00143592,"MEAN_MOTION_DDOT":0},{"OBJECT_NAME":"UNKNOWN","OBJECT_ID":"","EPOCH":"2026-03-03T05:56:48.495264","MEAN_MOTION":14.28997029,"ECCENTRICITY":0.0145319,"INCLINATION":98.9519,"RA_OF_ASC_NODE":341.2597,"ARG_OF_PERICENTER":124.103,"MEAN_ANOMALY":33.1695,"EPHEMERIS_TYPE":0,"CLASSIFICATION_TYPE":"U","NORAD_CAT_ID":81478,"ELEMENT_SET_NO":999,"REV_AT_EPOCH":63443,"BSTAR":0.0013778,"MEAN_MOTION_DOT":3.859e-5,"MEAN_MOTION_DDOT":0},{"OBJECT_NAME":"UNKNOWN","OBJECT_ID":"","EPOCH":"2026-03-04T21:44:01.714560","MEAN_MOTION":13.56550244,"ECCENTRICITY":0.0044577,"INCLINATION":99.9937,"RA_OF_ASC_NODE":302.7673,"ARG_OF_PERICENTER":155.1034,"MEAN_ANOMALY":223.7725,"EPHEMERIS_TYPE":0,"CLASSIFICATION_TYPE":"U","NORAD_CAT_ID":81488,"ELEMENT_SET_NO":999,"REV_AT_EPOCH":60777,"BSTAR":0.00038848,"MEAN_MOTION_DOT":2.3e-6,"MEAN_MOTION_DDOT":0},{"OBJECT_NAME":"UNKNOWN","OBJECT_ID":"","EPOCH":"2026-03-01T23:31:12.157248","MEAN_MOTION":13.84808267,"ECCENTRICITY":0.0027031,"INCLINATION":100.2999,"RA_OF_ASC_NODE":328.2356,"ARG_OF_PERICENTER":170.175,"MEAN_ANOMALY":255.6004,"EPHEMERIS_TYPE":0,"CLASSIFICATION_TYPE":"U","NORAD_CAT_ID":81497,"ELEMENT_SET_NO":999,"REV_AT_EPOCH":22726,"BSTAR":0.0033385,"MEAN_MOTION_DOT":3.724e-5,"MEAN_MOTION_DDOT":0},{"OBJECT_NAME":"UNKNOWN","OBJECT_ID":"","EPOCH":"2026-03-04T16:17:04.432992","MEAN_MOTION":14.47664692,"ECCENTRICITY":0.0002879,"INCLINATION":74.0471,"RA_OF_ASC_NODE":67.9646,"ARG_OF_PERICENTER":235.8777,"MEAN_ANOMALY":124.2109,"EPHEMERIS_TYPE":0,"CLASSIFICATION_TYPE":"U","NORAD_CAT_ID":81499,"ELEMENT_SET_NO":999,"REV_AT_EPOCH":49427,"BSTAR":0.0011396,"MEAN_MOTION_DOT":4.178e-5,"MEAN_MOTION_DDOT":0},{"OBJECT_NAME":"UNKNOWN","OBJECT_ID":"","EPOCH":"2026-03-05T00:58:26.162112","MEAN_MOTION":14.13635341,"ECCENTRICITY":0.0233522,"INCLINATION":98.1907,"RA_OF_ASC_NODE":144.5077,"ARG_OF_PERICENTER":270.3295,"MEAN_ANOMALY":87.1125,"EPHEMERIS_TYPE":0,"CLASSIFICATION_TYPE":"U","NORAD_CAT_ID":81535,"ELEMENT_SET_NO":999,"REV_AT_EPOCH":39902,"BSTAR":0.0005011,"MEAN_MOTION_DOT":1.184e-5,"MEAN_MOTION_DDOT":0},{"OBJECT_NAME":"UNKNOWN","OBJECT_ID":"","EPOCH":"2026-03-05T08:55:09.905952","MEAN_MOTION":12.55976218,"ECCENTRICITY":0.0018378,"INCLINATION":101.9676,"RA_OF_ASC_NODE":291.4387,"ARG_OF_PERICENTER":119.6505,"MEAN_ANOMALY":62.2506,"EPHEMERIS_TYPE":0,"CLASSIFICATION_TYPE":"U","NORAD_CAT_ID":81536,"ELEMENT_SET_NO":999,"REV_AT_EPOCH":56218,"BSTAR":0.0044777,"MEAN_MOTION_DOT":6.91e-6,"MEAN_MOTION_DDOT":0},{"OBJECT_NAME":"UNKNOWN","OBJECT_ID":"","EPOCH":"2026-03-02T08:52:38.100288","MEAN_MOTION":14.07156543,"ECCENTRICITY":0.0075868,"INCLINATION":71.0398,"RA_OF_ASC_NODE":304.5004,"ARG_OF_PERICENTER":31.01,"MEAN_ANOMALY":329.5464,"EPHEMERIS_TYPE":0,"CLASSIFICATION_TYPE":"U","NORAD_CAT_ID":81537,"ELEMENT_SET_NO":999,"REV_AT_EPOCH":63166,"BSTAR":0.00019949,"MEAN_MOTION_DOT":2.97e-6,"MEAN_MOTION_DDOT":0}]
