UNKNOWN                 
1 81343U          26063.98115073  .00008846  00000+0  61837-3 0  9993
2 81343  85.8746 155.3788 0007522 339.4503  20.6427 15.05159698466689
UNKNOWN                 
1 81359U          26063.85741050  .00001030  00000+0  10247-2 0  9992
2 81359  66.7970 215.4223 0119863 270.5374  88.1966 13.78978134616808
UNKNOWN                 
1 81366U          26061.92969977  .00000839  00000+0  32297-3 0  9992
2 81366  65.8803 242.2206 0712435  42.5375 322.8660 13.45377095 76747
UNKNOWN                 
1 81371U          26064.50626687  .00005647  00000+0  89225-3 0  9998
2 81371  98.8101 172.6109 0070133 106.8339 254.0573 14.71130762654002
UNKNOWN                 
1 81392U          26063.74591998  .00003705  00000+0  34598-2 0  9997
2 81392 100.4046  65.3082 0039118 183.0651 355.2593 13.82274067613507
UNKNOWN                 
1 81405U          26062.94966857  .00001635  00000+0  12527-2 0  9991
2 81405  99.4597 117.4079 0157918   7.0973 353.2369 13.89145588573074
UNKNOWN                 
1 81427U          26064.13405125  .00000445  00000+0  28226-3 0  9996
2 81427  98.7437 308.6068 0083884 165.5622 194.7972 14.07092373563358
UNKNOWN                 
1 81438U          26064.37660098  .00002957  00000+0  43174-2 0  9994
2 81438 100.3256 304.7008 0048927 239.6708 119.9582 13.55193005603130
UNKNOWN                 
1 81439U          26064.18574921  .00000467  00000+0  14500-2 0  9998
2 81439  67.1625 342.3805 0596050 152.4216 210.9808 12.62651463272303
UNKNOWN                 
1 81449U          26064.46219888  .00143592  00000+0  70943-2 0  9998
2 81449  66.7883 107.9730 0023340  19.1658 341.0358 15.16828588646029
UNKNOWN                 
1 81478U          26062.24778351  .00003859  00000+0  13778-2 0  9993
2 81478  98.9519 341.2597 0145319 124.1030  33.1695 14.28997029634434
UNKNOWN                 
1 81488U          26063.90557540  .00000230  00000+0  38848-3 0  9999
2 81488  99.9937 302.7673 0044577 155.1034 223.7725 13.56550244607771
UNKNOWN                 
1 81497U          26060.98000182  .00003724  00000+0  33385-2 0  9990
2 81497 100.2999 328.2356 0027031 170.1750 255.6004 13.84808267227262
UNKNOWN                 
1 81499U          26063.67852353  .00004178  00000+0  11396-2 0  9998
2 81499  74.0471  67.9646 0002879 235.8777 124.2109 14.47664692494273
UNKNOWN                 
1 81535U          26064.04058058  .00001184  00000+0  50110-3 0  9993
2 81535  98.1907 144.5077 0233522 270.3295  87.1125 14.13635341399029
UNKNOWN                 
1 81536U          26064.37164243  .00000691  00000+0  44777-2 0  9997
2 81536 101.9676 291.4387 0018378 119.6505  62.2506 12.55976218562182
UNKNOWN                 
1 81537U          26061.36988542  .00000297  00000+0  19949-3 0  9996
2 81537  71.0398 304.5004 0075868  31.0100 329.5464 14.07156543631660
